IRIDIUM 126             
1 42809U 17039G   23338.52970903  .00000371  00000+0  12533-3 0  9994
2 42809  86.3987  20.4841 0002132 103.5533 256.5900 14.34217162337284
IRIDIUM 124             
1 42810U 17039H   23338.48563964  .00000782  00000+0  22656-3 0  9999
2 42810  86.4471 317.2609 0002454  85.1024 275.0458 14.43291383341591
IRIDIUM 128             
1 42811U 17039J   23338.31113766  .00000081  00000+0  21839-4 0  9998
2 42811  86.3986  52.0920 0002092  97.7063 262.4371 14.34218408337273
IRIDIUM 121             
1 42812U 17039K   23339.17665609  .00000378  00000+0  12774-3 0  9998
2 42812  86.3988  20.2354 0002066  95.2760 264.8671 14.34216823337360
IRIDIUM 133             
1 42955U 17061A   23339.24984556  .00000260  00000+0  85624-4 0  9999
2 42955  86.3991  51.7957 0002118 100.8098 259.3336 14.34216964322205
IRIDIUM 100             
1 42956U 17061B   23339.17373511  .00000468  00000+0  16013-3 0  9990
2 42956  86.3984  51.7672 0002211  97.8195 262.3252 14.34216196322218
IRIDIUM 122             
1 42957U 17061C   23339.14201798  .00000473  00000+0  16196-3 0  9993
2 42957  86.3983  51.7778 0002263  96.7666 263.3787 14.34219388322190
IRIDIUM 129             
1 42958U 17061D   23339.30692975  .00000114  00000+0  33545-4 0  9993
2 42958  86.3986  51.7665 0002282  99.7616 260.3838 14.34216071322233
